IRIDIUM 106             
1 41917U 17003A   25195.62516381  .00000019  00000+0 -28646-6 0  9999
2 41917  86.3954 229.5364 0001813  89.1833 270.9570 14.34217772444825
IRIDIUM 103             
1 41918U 17003B   25195.61248017  .00000011  00000+0 -30122-5 0  9990
2 41918  86.3958 229.4425 0002417  77.9639 282.1828 14.34217605444845
IRIDIUM 109             
1 41919U 17003C   25195.61882260  .00000017  00000+0 -11726-5 0  9990
2 41919  86.3955 229.4937 0002469  90.3930 269.7549 14.34217688444810
IRIDIUM 102             
1 41920U 17003D   25195.58710983  .00000028  00000+0  28805-5 0  9997
2 41920  86.3953 229.4377 0002402  94.0082 266.1388 14.34217730444892
IRIDIUM 105             
1 41921U 17003E   25195.55784490 -.00000001  00000+0 -74898-5 0  9995
2 41921  86.3990 197.9256 0002277  84.4841 275.6614 14.34217014446743
IRIDIUM 104             
1 41922U 17003F   25195.59979551  .00000021  00000+0  51964-6 0  9994
2 41922  86.3955 229.4699 0002688  87.2185 272.9319 14.34217694444884
IRIDIUM 114             
1 41923U 17003G   25195.60613694  .00000121  00000+0  36134-4 0  9991
2 41923  86.3955 229.4517 0002315  84.9010 275.2450 14.34218096444869
IRIDIUM 108             
1 41924U 17003H   25195.70419499  .00000028  00000+0  28048-5 0  9992
2 41924  86.3980 197.7640 0002153  92.3673 267.7769 14.34217756446739
